STARLINK-36260
1 67732U 26026M   26092.03048046  .00261093  00000+0  76668-2 0  9990
2 67732  97.2855 146.3166 0000896  48.3603 311.7716 15.34049485  7700
